PROBA-1                 
1 26958U 01049B   26194.88535925  .00001391  00000+0  92787-4 0  9991
2 26958  97.9605 204.3510 0055864  34.0976 326.3819 15.07612641347649
CUTE-1 (CO-55)          
1 27844U 03031E   26194.45028445  .00000157  00000+0  86848-4 0  9996
2 27844  98.6742 202.6793 0010803 107.1223 253.1140 14.24350896195418
CUBESAT XI-IV (CO-57)   
1 27848U 03031J   26194.52222380  .00000129  00000+0  75510-4 0  9995
2 27848  98.6773 202.4416 0010486 123.7879 236.4299 14.23634003195125
APRIZESAT 4             
1 35684U 09041D   26194.75744536  .00000307  00000+0  43447-4 0  9998
2 35684  98.1404 270.6067 0042130 234.2844 125.4446 14.83912595915300
APRIZESAT 3             
1 35686U 09041F   26194.38011459  .00001048  00000+0  95315-4 0  9994
2 35686  98.2095 348.8641 0060907 341.9316  17.9739 14.96307525920296
PROBA-2                 
1 36037U 09059B   26194.51266359  .00000083  00000+0  29776-4 0  9996
2 36037  98.2458  17.5015 0012896 194.0219 166.0622 14.54873268885358
APRIZESAT 5             
1 37792U 11044E   26194.76011343  .00000397  00000+0  57646-4 0  9995
2 37792  98.2450 128.5549 0050704 277.4380  82.1071 14.81126131802725
APRIZESAT 6             
1 37793U 11044F   26194.70352876  .00000390  00000+0  62464-4 0  9996
2 37793  98.2340 105.7424 0043182   3.0266  54.5582 14.76955496801065
PROBA-V                 
1 39159U 13021A   26194.82729558  .00000021  00000+0  27093-4 0  9999
2 39159  98.3605 172.1212 0005295  63.2222 296.9498 14.23603309684909
APRIZESAT 7             
1 39416U 13066A   26194.85345642  .00000428  00000+0  47750-4 0  9998
2 39416  97.7721 147.6927 0037153 121.5967 238.8887 14.91617545685202
APRIZESAT 8             
1 39425U 13066K   26194.84385045  .00000387  00000+0  47926-4 0  9997
2 39425  97.8230 141.9422 0045374 196.3604 163.6151 14.87695316683638
BUGSAT-1 (TITA)         
1 40014U 14033E   26194.83878434  .00003324  00000+0  17586-3 0  9998
2 40014  98.0438 288.9514 0029234  90.3909 270.0672 15.15873446659873
SAUDISAT 4              
1 40016U 14033G   26194.83217573  .00000240  00000+0  38468-4 0  9998
2 40016  97.7615 340.0505 0044367 348.5346  11.4852 14.79574827650019
APRIZESAT 9             
1 40018U 14033J   26194.81398331  .00000335  00000+0  56551-4 0  9998
2 40018  97.9092 327.3664 0067411 114.2879 246.5390 14.74251612647484
APRIZESAT 10            
1 40019U 14033K   26194.86132501  .00000308  00000+0  56227-4 0  9999
2 40019  97.9679 321.2304 0078645 187.6213 172.3805 14.70909985646178
TECHDEMOSAT-1 (TDS-1)   
1 40076U 14037H   26194.86836947  .00004758  00000+0  26877-3 0  9991
2 40076  98.3822 189.7350 0006766 162.9930 197.1526 15.13667533652261
TECHNOSAT               
1 42829U 17042E   26194.37805134  .00002037  00000+0  14687-3 0  9992
2 42829  97.4311 351.0449 0017599   9.3532 350.8019 15.05104462490648
FLYING LAPTOP           
1 42831U 17042G   26194.84706483  .00002410  00000+0  19107-3 0  9991
2 42831  97.4792 349.3759 0019757  36.8487 323.4091 15.01308694490454
HAWK-A                  
1 43765U 18099H   26194.72921005  .00003900  00000+0  15687-3 0  9991
2 43765  97.3901 246.6217 0034548 189.1183 170.9432 15.24952749417140
HAWK-B                  
1 43794U 18099AN  26194.71690542  .00003360  00000+0  14365-3 0  9993
2 43794  97.3951 245.9686 0031227 207.3320 152.6275 15.23104475417074
HAWK-C                  
1 43799U 18099AT  26194.71066463  .00004927  00000+0  17637-3 0  9992
2 43799  97.3879 247.6475 0040081 189.0592 170.9929 15.28475603417964
SALSAT                  
1 46495U 20068K   26194.50246524  .00004373  00000+0  15263-3 0  9990
2 46495  97.8854 199.1769 0008994 199.0888 161.0016 15.30157505319387
HAWK-2C                 
1 47502U 21006CT  26194.68724632  .00003939  00000+0  11830-3 0  9996
2 47502  97.2268 238.4713 0008639 105.1278 255.0922 15.34977257303564
HAWK-2A                 
1 47505U 21006CW  26194.68948536  .00003924  00000+0  11781-3 0  9999
2 47505  97.2309 239.1669 0008163 108.4159 251.7972 15.34992045303567
HAWK-2B                 
1 47508U 21006CZ  26194.68313564  .00004456  00000+0  13290-3 0  9997
2 47508  97.2178 237.4508 0008690 106.7993 253.4205 15.35122316303564
HAWK-3B                 
1 48931U 21059BE  26194.50864335  .00029507  00000+0  22908-3 0  9994
2 48931  97.6631  33.7494 0004318 204.4435 155.6623 15.71758213281983
HAWK-3C                 
1 48948U 21059BX  26194.50832932  .00029274  00000+0  22722-3 0  9995
2 48948  97.6753  39.4797 0004661 205.3009 154.8025 15.71762993281980
HAWK-3A                 
1 48957U 21059CG  26194.50821687  .00028655  00000+0  22247-3 0  9994
2 48957  97.6696  36.6637 0004469 207.8356 152.2667 15.71762141281985
HAWK-5C                 
1 52754U 22057Y   26194.73932015  .00011227  00000+0  18637-3 0  9991
2 52754  97.6607 356.1407 0002937 352.8842   7.2367 15.52291148230467
HAWK-5B                 
1 52756U 22057AA  26194.86805954  .00011215  00000+0  18616-3 0  9992
2 52756  97.6622 354.6312 0003586 338.0104  22.0993 15.52292068230486
